{
    "links": {
        "self": "http://www.neowsapp.com/rest/v1/neo/54087485?api_key=iIulBulltgU6a56xZRHN4H3l9WmuAYTsLGpBGhQ2"
    },
    "id": "54087485",
    "neo_reference_id": "54087485",
    "name": "(2020 VA1)",
    "designation": "2020 VA1",
    "nasa_jpl_url": "http://ssd.jpl.nasa.gov/sbdb.cgi?sstr=54087485",
    "absolute_magnitude_h": 24.871,
    "estimated_diameter": {
        "kilometers": {
            "estimated_diameter_min": 0.0282068752,
            "estimated_diameter_max": 0.0630724903
        },
        "meters": {
            "estimated_diameter_min": 28.2068751728,
            "estimated_diameter_max": 63.0724903193
        },
        "miles": {
            "estimated_diameter_min": 0.0175269342,
            "estimated_diameter_max": 0.0391914164
        },
        "feet": {
            "estimated_diameter_min": 92.542244342,
            "estimated_diameter_max": 206.9307491391
        }
    },
    "is_potentially_hazardous_asteroid": false,
    "close_approach_data": [
        {
            "close_approach_date": "2015-10-16",
            "close_approach_date_full": "2015-Oct-16 07:29",
            "epoch_date_close_approach": 1444980540000,
            "relative_velocity": {
                "kilometers_per_second": "21.7162761118",
                "kilometers_per_hour": "78178.5940024076",
                "miles_per_hour": "48577.1380344405"
            },
            "miss_distance": {
                "astronomical": "0.4637366147",
                "lunar": "180.3935431183",
                "kilometers": "69374009.800130689",
                "miles": "43107010.7911499482"
            },
            "orbiting_body": "Earth"
        },
        {
            "close_approach_date": "2020-11-20",
            "close_approach_date_full": "2020-Nov-20 00:42",
            "epoch_date_close_approach": 1605832920000,
            "relative_velocity": {
                "kilometers_per_second": "8.7357662262",
                "kilometers_per_hour": "31448.758414229",
                "miles_per_hour": "19541.0354713303"
            },
            "miss_distance": {
                "astronomical": "0.029961197",
                "lunar": "11.654905633",
                "kilometers": "4482131.25385039",
                "miles": "2785067.215859782"
            },
            "orbiting_body": "Earth"
        },
        {
            "close_approach_date": "2026-02-03",
            "close_approach_date_full": "2026-Feb-03 19:20",
            "epoch_date_close_approach": 1770146400000,
            "relative_velocity": {
                "kilometers_per_second": "13.9017097981",
                "kilometers_per_hour": "50046.1552730725",
                "miles_per_hour": "31096.7346473155"
            },
            "miss_distance": {
                "astronomical": "0.2520209222",
                "lunar": "98.0361387358",
                "kilometers": "37701793.156555714",
                "miles": "23426807.9519642932"
            },
            "orbiting_body": "Earth"
        }
    ],
    "orbital_data": {
        "orbit_id": "16",
        "orbit_determination_date": "2020-11-26 05:21:06",
        "first_observation_date": "2020-11-06",
        "last_observation_date": "2020-11-24",
        "data_arc_in_days": 18,
        "observations_used": 201,
        "orbit_uncertainty": "7",
        "minimum_orbit_intersection": ".0290944",
        "jupiter_tisserand_invariant": "3.839",
        "epoch_osculation": "2459000.5",
        "eccentricity": ".4784409824996747",
        "semi_major_axis": "1.859480084097951",
        "inclination": "7.566789893892441",
        "ascending_node_longitude": "230.1113989871944",
        "orbital_period": "926.1593675270152",
        "perihelion_distance": ".9698286057235493",
        "perihelion_argument": "217.0310849029136",
        "aphelion_distance": "2.749131562472352",
        "perihelion_time": "2459197.085567054419",
        "mean_anomaly": "283.5867965914338",
        "mean_motion": ".3887020016449805",
        "equinox": "J2000",
        "orbit_class": {
            "orbit_class_type": "APO",
            "orbit_class_description": "Near-Earth asteroid orbits which cross the Earth’s orbit similar to that of 1862 Apollo",
            "orbit_class_range": "a (semi-major axis) > 1.0 AU; q (perihelion) < 1.017 AU"
        }
    },
    "is_sentry_object": false
}